ONEWEB-0199             
1 48234U 21031AA  25310.31246066  .00000009  00000+0 -10973-4 0  9990
2 48234  87.9003 334.0927 0001826  98.7348 261.3989 13.14502508218989
ONEWEB-0203             
1 48235U 21031AB  25310.15069917  .00000018  00000+0  15204-4 0  9992
2 48235  87.9004 334.1262 0002079  98.7189 261.4176 13.14504156218977
ONEWEB-0197             
1 48236U 21031AC  25310.12519557  .00000223  00000+0  56620-3 0  9994
2 48236  87.9000 334.1295 0001528  89.6727 270.4578 13.14502254218888
ONEWEB-0194             
1 48237U 21031AD  25310.10471533  .00000351  00000+0  91185-3 0  9991
2 48237  87.9004 334.1499 0001859 102.3756 257.7582 13.14501202219056
ONEWEB-0193             
1 48238U 21031AE  25310.12058197  .00000038  00000+0  67119-4 0  9994
2 48238  87.8998 334.1429 0001870 108.9236 251.2096 13.14501712219009
ONEWEB-0191             
1 48239U 21031AF  25310.13167652  .00000196  00000+0  49344-3 0  9997
2 48239  87.9007 334.1271 0001796  94.4491 265.6844 13.14501468218867
ONEWEB-0195             
1 48240U 21031AG  25310.10869327 -.00000196  00000+0 -56241-3 0  9990
2 48240  87.9008 334.1272 0002199  87.8057 272.3324 13.14503107218841
ONEWEB-0201             
1 48241U 21031AH  25310.09692047 -.00000229  00000+0 -65196-3 0  9998
2 48241  87.8995 334.1751 0001768  83.7526 276.3805 13.14504503219070
